2025-135AG              
1 64558U 25135AG  25198.28946083  .00007480  00000+0  38341-3 0  9999
2 64558  97.4507 312.4232 0005107 245.0048 115.0655 15.16842184  3999
2025-135AH              
1 64559U 25135AH  25198.28869342  .00000603  00000+0  66588-4 0  9997
2 64559  97.7473 312.2615 0000649 334.3528  25.7658 14.90963301  3928
2025-135AJ              
1 64560U 25135AJ  25198.28659926  .00003094  00000+0  31729-3 0  9999
2 64560  97.7501 312.2646 0000870  87.5929 272.5389 14.91158603  3929
2025-135AK              
1 64561U 25135AK  25198.28657665  .00003431  00000+0  35112-3 0  9993
2 64561  97.7512 312.2645 0001640 103.2493 256.8908 14.91164504  3928
2025-135AM              
1 64563U 25135AM  25198.28582541  .00004156  00000+0  42350-3 0  9992
2 64563  97.7459 312.2639 0001442 333.8583  26.2563 14.91224058  3921
2025-135AN              
1 64564U 25135AN  25198.62043886  .00003286  00000+0  33569-3 0  9990
2 64564  97.7474 312.5949 0001145   1.0594 359.0627 14.91270314  3971
2025-135AP              
1 64565U 25135AP  25198.75366684  .00001743  00000+0  18050-3 0  9993
2 64565  97.7458 312.7253 0001798 347.3545  12.7628 14.91320979  3999
2025-135AQ              
1 64566U 25135AQ  25198.75281679  .00001646  00000+0  17068-3 0  9994
2 64566  97.7485 312.7293 0001694  29.8511 330.2803 14.91343032  3992
2025-135AS              
1 64568U 25135AS  25198.28233575  .00001513  00000+0  15708-3 0  9998
2 64568  97.7479 312.2683 0002037  25.7733 334.3586 14.91390614  3922
2025-135AT              
1 64569U 25135AT  25198.28191591  .00001519  00000+0  15758-3 0  9991
2 64569  97.7501 312.2713 0002111  48.5841 311.5559 14.91417617  3929
2025-135AU              
1 64570U 25135AU  25198.28125617  .00002052  00000+0  21068-3 0  9993
2 64570  97.7482 312.2704 0002190  28.8184 331.3156 14.91477057  3924
2025-135AV              
1 64571U 25135AV  25198.75072683  .00001519  00000+0  15742-3 0  9999
2 64571  97.7477 312.7305 0002433  23.0942 337.0385 14.91471400  3990
2025-135AW              
1 64572U 25135AW  25198.28046903  .00001526  00000+0  15791-3 0  9996
2 64572  97.7498 312.2733 0002425  40.9671 319.1729 14.91512468  3928
2025-135AX              
1 64573U 25135AX  25198.75015763  .00001147  00000+0  12009-3 0  9997
2 64573  97.7481 312.7320 0002533  24.8585 335.2755 14.91501937  3997
2025-135AY              
1 64574U 25135AY  25198.27938879  .00002429  00000+0  24755-3 0  9992
2 64574  97.7502 312.2756 0002623  44.7929 315.3501 14.91598572  3925
2025-135AZ              
1 64575U 25135AZ  25198.29205728 -.00000183  00000+0 -13636-4 0  9999
2 64575  97.7508 312.2614 0010033  20.4662 339.6956 14.89030585  3929
2025-135BA              
1 64576U 25135BA  25198.27884018  .00001582  00000+0  16316-3 0  9992
2 64576  97.7469 312.2703 0003214  25.8582 334.2797 14.91614917  3922
2025-135BB              
1 64577U 25135BB  25198.75566192 -.00349177  00000+0 -39769-1 0  9998
2 64577  97.7478 312.7309 0012401 293.0065  66.9844 14.88171002  3991
2025-135BE              
1 64580U 25135BE  25198.27732018  .00001656  00000+0  17028-3 0  9992
2 64580  97.7483 312.2749 0004321  44.9810 315.1758 14.91655614  3923
STARLINK-34280          
1 64594U 25137A   25199.58335648 -.01533070  00000+0 -16336-1 0  9994
2 64594  53.1593 355.3208 0000989 105.1012 258.0708 15.66250837  4757
STARLINK-34517          
1 64595U 25137B   25199.58335648 -.01531476  00000+0 -16319-1 0  9994
2 64595  53.1593 355.3163 0000847 108.4629 256.6275 15.66249069  4759
STARLINK-34510          
1 64596U 25137C   25199.58335648 -.01539635  00000+0 -16412-1 0  9994
2 64596  53.1594 355.3129 0001024 101.3869 265.6173 15.66254167  4751
STARLINK-34486          
1 64597U 25137D   25199.58335648 -.01535709  00000+0 -16367-1 0  9992
2 64597  53.1596 355.3083 0000992 104.1417 264.7816 15.66251603  4752
STARLINK-34463          
1 64598U 25137E   25199.58335648 -.01532634  00000+0 -16331-1 0  9998
2 64598  53.1596 355.3040 0001022 111.9752 258.8632 15.66250232  4756
STARLINK-34294          
1 64599U 25137F   25199.58335648 -.01533744  00000+0 -16343-1 0  9995
2 64599  53.1595 355.3001 0001071 108.1791 264.5753 15.66251653  4754
STARLINK-34504          
1 64600U 25137G   25199.58335648 -.01533926  00000+0 -16345-1 0  9992
2 64600  53.1595 355.2958 0001085 113.1749 261.4948 15.66251791  4756
STARLINK-34508          
1 64601U 25137H   25199.58335648 -.01536486  00000+0 -16377-1 0  9992
2 64601  53.1594 355.2923 0000899 105.8523 270.7392 15.66251375  4752
STARLINK-34435          
1 64602U 25137J   25199.58335648 -.01536534  00000+0 -16376-1 0  9996
2 64602  53.1594 355.2883 0000982 108.5000 270.0055 15.66252981  4754
STARLINK-34475          
1 64603U 25137K   25199.58335648 -.01533903  00000+0 -16346-1 0  9991
2 64603  53.1593 355.2842 0000982 107.4688 272.9550 15.66250818  4757
STARLINK-34488          
1 64604U 25137L   25199.58335648 -.01534988  00000+0 -16359-1 0  9990
2 64604  53.1592 355.2798 0000889 107.9371 274.4036 15.66251624  4759
STARLINK-34516          
1 64605U 25137M   25199.58335648 -.01535523  00000+0 -16365-1 0  9994
2 64605  53.1595 355.2763 0000985 106.7643 277.4941 15.66251330  4854
STARLINK-34073          
1 64606U 25137N   25199.58335648 -.01537531  00000+0 -16388-1 0  9991
2 64606  53.1592 355.2718 0001086 104.8981 281.2762 15.66251873  4642
STARLINK-34532          
1 64607U 25137P   25199.58335648 -.01536507  00000+0 -16377-1 0  9992
2 64607  53.1594 355.2679 0000980 106.0996 281.9937 15.66251013  4752
STARLINK-34519          
1 64608U 25137Q   25199.58335648 -.01536863  00000+0 -16380-1 0  9992
2 64608  53.1594 355.2637 0001007 101.6519 288.3551 15.66252636  4755
STARLINK-34513          
1 64609U 25137R   25199.58335648 -.01534492  00000+0 -16352-1 0  9998
2 64609  53.1596 355.2598 0000997 103.6592 288.2641 15.66252250  4856
STARLINK-34569          
1 64610U 25137S   25199.58335648 -.01536161  00000+0 -16371-1 0  9996
2 64610  53.1597 355.2554 0000963 108.0890 285.7495 15.66253977  4759
STARLINK-34494          
1 64611U 25137T   25199.58335648 -.01537140  00000+0 -16383-1 0  9998
2 64611  53.1596 355.2513 0000952 102.3758 293.3815 15.66253610  4757
STARLINK-34521          
1 64612U 25137U   25199.58335648 -.01536166  00000+0 -16372-1 0  9994
2 64612  53.1594 355.2477 0001028 100.8779 296.7964 15.66251946  4758
STARLINK-34500          
1 64613U 25137V   25199.58335648 -.01538530  00000+0 -16399-1 0  9991
2 64613  53.1598 355.2438 0000932 104.9319 294.6577 15.66254718  4856
STARLINK-34440          
1 64614U 25137W   25199.58335648 -.01533111  00000+0 -16337-1 0  9994
2 64614  53.1600 355.2404 0000960  95.1366 306.3730 15.66250363  4751
STARLINK-34469          
1 64615U 25137X   25199.58335648 -.01536481  00000+0 -16377-1 0  9992
2 64615  53.1594 355.2356 0000921 102.6449 300.7831 15.66251090  4751
STARLINK-34413          
1 64616U 25137Y   25199.58335648 -.01541762  00000+0 -16437-1 0  9998
2 64616  53.1591 355.2319 0000841 103.2828 302.0571 15.66256493  4856
STARLINK-34417          
1 64617U 25137Z   25199.58335648 -.00054992  00000+0 -40249-3 0  9992
2 64617  53.1594 354.9894 0001074  83.3690  80.0979 15.72461951  4857
STARLINK-34415          
1 64618U 25137AA  25199.58335648 -.01536508  00000+0 -16377-1 0  9995
2 64618  53.1599 355.2240 0000897 101.1683 308.0091 15.66251799  4718
STARLINK-34416          
1 64619U 25137AB  25199.58335648 -.01538029  00000+0 -16393-1 0  9994
2 64619  53.1599 355.2200 0001035  97.3837 313.7072 15.66253784  4759
STARLINK-34414          
1 64620U 25137AC  25199.58335648 -.01535060  00000+0 -16361-1 0  9993
2 64620  53.1601 355.2160 0000828 104.0691 308.9427 15.66250474  4756
HAWK-12C                
1 64621U 25138A   25199.09635371  .00002848  00000+0  15667-3 0  9997
2 64621  97.4307 203.2211 0013860 219.2706 140.7522 15.14789880  3237
HAWK-12B                
1 64622U 25138B   25198.50085466  .00002102  00000+0  11697-3 0  9999
2 64622  97.4415 202.6736 0013037 216.0230 144.0124 15.14671753  3140
HAWK-12A                
1 64623U 25138C   25199.55730931  .00002744  00000+0  15187-3 0  9990
2 64623  97.4364 203.6939 0014268 211.4823 148.5557 15.14596066  3304
KESTREL-0A              
1 64624U 25138D   25199.48223676  .00001788  00000+0  98165-4 0  9991
2 64624  97.4366 203.6418 0015416 204.1224 155.9288 15.15322133  3282
STARLINK-34464          
1 64664U 25139A   25199.58335648 -.01622537  00000+0 -35895-1 0  9992
2 64664  53.1596 138.2025 0001223  74.3698  97.8189 15.46467304  4380
STARLINK-34555          
1 64665U 25139B   25199.58335648 -.01655848  00000+0 -33696-1 0  9991
2 64665  53.1592 138.1906 0000944  86.9861  91.1385 15.48915760  4273
STARLINK-34390          
1 64666U 25139C   25199.58335648 -.01641105  00000+0 -33361-1 0  9992
2 64666  53.1595 138.1858 0001295  98.4866  81.5443 15.48913403  4445
STARLINK-34382          
1 64667U 25139D   25199.58335648 -.01583591  00000+0 -35435-1 0  9991
2 64667  53.1589 138.1928 0001412  66.9725 109.7443 15.46059352  4380
STARLINK-34395          
1 64668U 25139E   25199.58335648 -.00001607  00000+0 -20850-4 0  9992
2 64668  53.1594 138.1778 0000803  79.8371 104.1449 15.49312001  4384
STARLINK-34394          
1 64669U 25139F   25199.58335648  .00059608  00000+0  10720-2 0  9998
2 64669  53.1594 138.1741 0001045  75.4837 110.4212 15.49299278  4381
STARLINK-34287          
1 64670U 25139G   25199.58335648  .00035617  00000+0  64605-3 0  9996
2 64670  53.1594 138.1700 0000832 100.5971  87.2334 15.49285693  4382
STARLINK-34365          
1 64671U 25139H   25199.58335648  .00035763  00000+0  64893-3 0  9998
2 64671  53.1593 138.1661 0000791  91.9601  97.8050 15.49273685  4442
STARLINK-34442          
1 64672U 25139J   25199.58335648  .00033249  00000+0  60385-3 0  9998
2 64672  53.1593 138.1621 0000901  91.0518 100.6175 15.49284003  4380
